KUZGTU 1 (RS47S)        
1 57217U 23091AV  26193.14590596  .00007429  00000+0  25476-3 0  9995
2 57217  97.5058 257.8874 0010409  17.1589 343.0002 15.30426381168194
SONATE-2                
1 59112U 24043Q   26192.39059297  .00029289  00000+0  35468-3 0  9993
2 59112  97.5544 344.3084 0006813 117.4206 242.7744 15.60605233131667
MESAT1                  
1 60209U 24125G   26192.60174960  .00040433  00000+0  39351-3 0  9991
2 60209  97.2263  50.6867 0010962 123.9142 236.3162 15.66096766113381
OOV-CUBE (TUBSAT-30)    
1 60240U 24128F   26193.00684617  .00001128  00000+0  97999-4 0  9990
2 60240  61.9937 139.0215 0041539 139.3002 221.1206 15.02865918109841
COLIBRI-S (RS67S)       
1 61746U 24199M   26193.13900855  .00013839  00000+0  25918-3 0  9992
2 61746  97.2965  67.2345 0008599 172.8358 187.3017 15.48760624141271
HORS 3 (RS81S)          
1 61753U 24199U   26193.17272168  .00023387  00000+0  32781-3 0  9998
2 61753  97.2946  69.5386 0006799 165.0255 195.1203 15.56746928141441
HORS 4 (RS82S)          
1 61754U 24199V   26193.18089769  .00033757  00000+0  38475-3 0  9991
2 61754  97.2888  70.9218 0006696 156.7278 203.4284 15.62155406141540
SIT-2086                
1 61764U 24199AF  26193.18135066  .00024819  00000+0  37252-3 0  9995
2 61764  97.2904  69.9371 0007897 153.7619 206.4037 15.54860814138315
HYPERVIEW 1G (RS66S)    
1 61772U 24199AP  26193.14720398  .00177893  00000+0  77448-3 0  9990
2 61772  97.2811  74.2684 0008170 153.8097 206.3587 15.84262741138613
ALTAIR (RS65S)          
1 61779U 24199AW  26193.17300462  .00005849  00000+0  16110-3 0  9996
2 61779  97.3003  62.3632 0011714 207.9007 152.1611 15.37465085140955
ASRTU-1 (AO-123)        
1 61781U 24199AY  26193.18365902  .00004530  00000+0  13114-3 0  9997
2 61781  97.2973  61.6312 0012693 212.0613 147.9860 15.36025496137767
SAMSAT-IONOSPHERE (RS7*)
1 61784U 24199BB  26193.16030944  .00031905  00000+0  39608-3 0  9995
2 61784  97.2912  69.6716 0008903 170.2582 189.8849 15.59910936141458
RTU MIREA 1 (RS51S)     
1 61785U 24199BC  26193.18870676  .00042873  00000+0  45371-3 0  9992
2 61785  97.2896  70.6720 0008967 164.7286 195.4246 15.63994697138378
TEVEL2-4                
1 63213U 25052D   26193.14863207  .00010852  00000+0  31682-3 0  9999
2 63213  97.3883  89.5932 0003806  58.2703 301.8911 15.35493352 73949
TEVEL2-5                
1 63214U 25052E   26193.17203626  .00010707  00000+0  31447-3 0  9994
2 63214  97.3875  89.5570 0003832  59.0491 301.1128 15.35309356 73944
TEVEL2-6                
1 63215U 25052F   26193.18493847  .00011196  00000+0  32905-3 0  9995
2 63215  97.3878  89.5546 0003821  61.8174 298.3455 15.35273569 73944
TEVEL2-1                
1 63217U 25052H   26193.15771605  .00010310  00000+0  30872-3 0  9993
2 63217  97.3854  89.1215 0004471  66.2776 293.8936 15.34705870 73924
TEVEL2-3                
1 63218U 25052J   26193.15139874  .00010389  00000+0  31046-3 0  9990
2 63218  97.3855  89.1404 0004252  67.7736 292.3958 15.34767444 73928
TEVEL2-2                
1 63219U 25052K   26193.15786479  .00010291  00000+0  30804-3 0  9993
2 63219  97.3850  89.1247 0004532  66.8896 293.2824 15.34716519 73926
OTP-2                   
1 63235U 25052AB  26192.64986825  .00004286  00000+0  17810-3 0  9990
2 63235  97.3846  84.7167 0008306  80.9023 279.3154 15.24307968 73590
TEVEL2-9                
1 63237U 25052AD  26193.16807814  .00009399  00000+0  30009-3 0  9995
2 63237  97.3918  88.4550 0007902  65.0146 295.1916 15.32670115 73857
TEVEL2-7                
1 63238U 25052AE  26193.14863883  .00009273  00000+0  29903-3 0  9994
2 63238  97.3916  88.3405 0007985  65.2305 294.9767 15.32354538 73842
TEVEL2-8                
1 63239U 25052AF  26192.70001789  .00009255  00000+0  29864-3 0  9991
2 63239  97.3915  87.8685 0008055  67.3029 292.9064 15.32332149 73775
INNOSAT 16 (RS92S7)     
1 64878U 25155C   26193.18885270  .00003436  00000+0  13740-3 0  9994
2 64878  97.4577 160.2434 0012468  97.3627 262.9028 15.25718328 84484
GEOSCAN 6 (RS92S6)      
1 64879U 25155D   26193.15871479  .00006151  00000+0  21017-3 0  9991
2 64879  97.4564 161.8172 0009997  90.6828 269.5558 15.30616372 84583
GEOSCAN 1 (RS92S1)      
1 64880U 25155E   26193.15104720  .00006839  00000+0  22880-3 0  9993
2 64880  97.4560 161.9800 0009953  90.8257 269.4124 15.31260826 84599
239ALFEROV (RS61S)      
1 64881U 25155F   26193.14899406  .00008869  00000+0  27498-3 0  9990
2 64881  97.4559 162.6261 0009647  90.5292 269.7056 15.33614472 84637
GEOSCAN 2 (RS92S2)      
1 64890U 25155Q   26193.20576977  .00006775  00000+0  22491-3 0  9994
2 64890  97.4559 162.1973 0009164  80.7475 279.4802 15.31519605 84615
GEOSCAN 5 (RS92S5)      
1 64891U 25155R   26193.19815293  .00008812  00000+0  27066-3 0  9997
2 64891  97.4551 162.8226 0008674  94.6636 265.5597 15.33921681 84658
GEOSCAN 4 (RS92S4)      
1 64892U 25155S   26193.17974160  .00008762  00000+0  26775-3 0  9995
2 64892  97.4555 162.8598 0008604  94.9577 265.2648 15.34088637 84655
