OBJECT_NAME,OBJECT_ID,EPOCH,MEAN_MOTION,ECCENTRICITY,INCLINATION,RA_OF_ASC_NODE,ARG_OF_PERICENTER,MEAN_ANOMALY,EPHEMERIS_TYPE,CLASSIFICATION_TYPE,NORAD_CAT_ID,ELEMENT_SET_NO,REV_AT_EPOCH,BSTAR,MEAN_MOTION_DOT,MEAN_MOTION_DDOT
KUZGTU 1 (RS47S),2023-091AV,2026-07-12T03:30:06.274944,15.30426381,.0010409,97.5058,257.8874,17.1589,343.0002,0,U,57217,999,16819,.25476E-3,.7429E-4,0
SONATE-2,2024-043Q,2026-07-11T09:22:27.232608,15.60605233,.00068135,97.5544,344.3084,117.4206,242.7744,0,U,59112,999,13166,.35467523E-3,.29289E-3,0
MESAT1,2024-125G,2026-07-11T14:26:31.165440,15.66096766,.00109622,97.2263,50.6867,123.9142,236.3162,0,U,60209,999,11338,.39351413E-3,.40433E-3,0
OOV-CUBE (TUBSAT-30),2024-128F,2026-07-12T00:09:51.509088,15.02865918,.0041539,61.9937,139.0215,139.3002,221.1206,0,U,60240,999,10984,.97999E-4,.1128E-4,0
COLIBRI-S (RS67S),2024-199M,2026-07-12T03:20:10.338720,15.48760624,.0008599,97.2965,67.2345,172.8358,187.3017,0,U,61746,999,14127,.25918E-3,.13839E-3,0
HORS 3 (RS81S),2024-199U,2026-07-12T04:08:43.153152,15.56746928,.0006799,97.2946,69.5386,165.0255,195.1203,0,U,61753,999,14144,.32781E-3,.23387E-3,0
HORS 4 (RS82S),2024-199V,2026-07-12T04:20:29.560416,15.62155406,.0006696,97.2888,70.9218,156.7278,203.4284,0,U,61754,999,14154,.38475E-3,.33757E-3,0
SIT-2086,2024-199AF,2026-07-12T04:21:08.697024,15.54860814,.0007897,97.2904,69.9371,153.7619,206.4037,0,U,61764,999,13831,.37252E-3,.24819E-3,0
HYPERVIEW 1G (RS66S),2024-199AP,2026-07-12T03:31:58.423872,15.84262741,.000817,97.2811,74.2684,153.8097,206.3587,0,U,61772,999,13861,.77448E-3,.177893E-2,0
ALTAIR (RS65S),2024-199AW,2026-07-12T04:09:07.599168,15.37465085,.0011714,97.3003,62.3632,207.9007,152.1611,0,U,61779,999,14095,.1611E-3,.5849E-4,0
ASRTU-1 (AO-123),2024-199AY,2026-07-12T04:24:28.139328,15.36025496,.0012693,97.2973,61.6312,212.0613,147.9860,0,U,61781,999,13776,.13114E-3,.453E-4,0
SAMSAT-IONOSPHERE (RS75S),2024-199BB,2026-07-12T03:50:50.735616,15.59910936,.0008903,97.2912,69.6716,170.2582,189.8849,0,U,61784,999,14145,.39608E-3,.31905E-3,0
RTU MIREA 1 (RS51S),2024-199BC,2026-07-12T04:31:44.264064,15.63994697,.0008967,97.2896,70.6720,164.7286,195.4246,0,U,61785,999,13837,.45371E-3,.42873E-3,0
TEVEL2-4,2025-052D,2026-07-12T03:34:01.810848,15.35493352,.0003806,97.3883,89.5932,58.2703,301.8911,0,U,63213,999,7394,.31682E-3,.10852E-3,0
TEVEL2-5,2025-052E,2026-07-12T04:07:43.932864,15.35309356,.0003832,97.3875,89.5570,59.0491,301.1128,0,U,63214,999,7394,.31447E-3,.10707E-3,0
TEVEL2-6,2025-052F,2026-07-12T04:26:18.683808,15.35273569,.0003821,97.3878,89.5546,61.8174,298.3455,0,U,63215,999,7394,.32905E-3,.11196E-3,0
TEVEL2-1,2025-052H,2026-07-12T03:47:06.666720,15.34705870,.0004471,97.3854,89.1215,66.2776,293.8936,0,U,63217,999,7392,.30872E-3,.1031E-3,0
TEVEL2-3,2025-052J,2026-07-12T03:38:00.851136,15.34767444,.0004252,97.3855,89.1404,67.7736,292.3958,0,U,63218,999,7392,.31046E-3,.10389E-3,0
TEVEL2-2,2025-052K,2026-07-12T03:47:19.517856,15.34716519,.0004532,97.3850,89.1247,66.8896,293.2824,0,U,63219,999,7392,.30804E-3,.10291E-3,0
OTP-2,2025-052AB,2026-07-11T15:35:48.616800,15.24307968,.00083062,97.3846,84.7167,80.9023,279.3154,0,U,63235,999,7359,.17810231E-3,.4286E-4,0
TEVEL2-9,2025-052AD,2026-07-12T04:02:01.951296,15.32670115,.0007902,97.3918,88.4550,65.0146,295.1916,0,U,63237,999,7385,.30009E-3,.9399E-4,0
TEVEL2-7,2025-052AE,2026-07-12T03:34:02.394912,15.32354538,.0007985,97.3916,88.3405,65.2305,294.9767,0,U,63238,999,7384,.29903E-3,.9273E-4,0
TEVEL2-8,2025-052AF,2026-07-11T16:48:01.545696,15.32332149,.00080555,97.3915,87.8685,67.3029,292.9064,0,U,63239,999,7377,.29863864E-3,.9255E-4,0
INNOSAT 16 (RS92S7),2025-155C,2026-07-12T04:31:56.873280,15.25718328,.0012468,97.4577,160.2434,97.3627,262.9028,0,U,64878,999,8448,.1374E-3,.3436E-4,0
GEOSCAN 6 (RS92S6),2025-155D,2026-07-12T03:48:32.957856,15.30616372,.0009997,97.4564,161.8172,90.6828,269.5558,0,U,64879,999,8458,.21017E-3,.6151E-4,0
GEOSCAN 1 (RS92S1),2025-155E,2026-07-12T03:37:30.478080,15.31260826,.0009953,97.4560,161.9800,90.8257,269.4124,0,U,64880,999,8459,.2288E-3,.6839E-4,0
239ALFEROV (RS61S),2025-155F,2026-07-12T03:34:33.086784,15.33614472,.0009647,97.4559,162.6261,90.5292,269.7056,0,U,64881,999,8463,.27498E-3,.8869E-4,0
GEOSCAN 2 (RS92S2),2025-155Q,2026-07-12T04:56:18.508128,15.31519605,.0009164,97.4559,162.1973,80.7475,279.4802,0,U,64890,999,8461,.22491E-3,.6775E-4,0
GEOSCAN 5 (RS92S5),2025-155R,2026-07-12T04:45:20.413152,15.33921681,.0008674,97.4551,162.8226,94.6636,265.5597,0,U,64891,999,8465,.27066E-3,.8812E-4,0
GEOSCAN 4 (RS92S4),2025-155S,2026-07-12T04:18:49.674240,15.34088637,.0008604,97.4555,162.8598,94.9577,265.2648,0,U,64892,999,8465,.26775E-3,.8762E-4,0
